satname,norad_id,inclination_deg,eccentricity,mean_motion_rev_per_day,perigee_km,apogee_km,l1,l2
STARLINK-1402,45685,53.0462,0.0004013,15.48903127,417.2055302929066,422.66166175327544,1 45685U 20035AE  26093.78888289  .00152291  00000+0  27311-2 0  9991,2 45685  53.0462 263.5251 0004013 305.1062  54.9568 15.48903127323239
STARLINK-1404,45686,53.1601,0.0001777,15.3738237,452.6392962475211,455.06738561468774,1 45686U 20035AF  26093.92861166  .00036376  00000+0  98408-3 0  9994,2 45686  53.1601 291.9915 0001777 156.8430 203.2654 15.37382370322842
STARLINK-1413,45689,53.1576,0.0001319,15.30221078,474.24818619616417,476.05608386998574,1 45689U 20035AJ  26093.78305950  .00013912  00000+0  48064-3 0  9999,2 45689  53.1576 293.0230 0001319  91.7458 268.3694 15.30221078322732
STARLINK-1417,45693,53.0492,0.0002339,15.13778569,523.0746421228705,526.3037842253943,1 45693U 20035AN  26094.09241269  .00048480  00000+0  26544-2 0  9997,2 45693  53.0492 299.0612 0002339 325.7908  34.2934 15.13778569322747
STARLINK-1420,45695,53.0514,0.0004344,15.58954261,387.74200881941124,393.62275910019525,1 45695U 20035AQ  26094.17500110  .00190632  00000+0  23589-2 0  9994,2 45695  53.0514 258.9982 0004344 247.8388 112.2163 15.58954261323322
STARLINK-1422,45696,53.1574,0.0001058,15.30230118,474.40006884025206,475.8502191099178,1 45696U 20035AR  26094.05166482  .00010747  00000+0  37409-3 0  9997,2 45696  53.1574 291.7773 0001058 105.8459 254.2658 15.30230118322855
STARLINK-1351,45697,53.0488,0.0004509,15.57392632,392.1523486823626,398.2605498048897,1 45697U 20035AS  26094.17453031  .00145576  00000+0  19225-2 0  9994,2 45697  53.0488 258.4623 0004509 262.8252  97.2246 15.57392632323333
STARLINK-1400,45700,53.0476,0.0005701,15.55249685,397.56189360216104,405.29195238715965,1 45700U 20035AV  26093.91668981  .00240821  00000+0  33968-2 0  9991,2 45700  53.0476 261.4076 0005701 203.0732 143.4945 15.55249685  5914
STARLINK-1403,45701,53.1566,0.0001604,15.2939363,476.52413866419647,478.7234667297007,1 45701U 20035AW  26093.75932000  .00003085  00000+0  11907-3 0  9999,2 45701  53.1566 280.2140 0001604  77.5044 282.6136 15.29393630322983
STARLINK-1407,45703,53.0314,0.0003817,15.65396,369.52354379825283,374.67667480749515,1 45703U 20035AY  26094.53399875  .00069817  00000+0  68628-3 0  9992,2 45703  53.0314 189.2916 0003817 215.7209 144.3551 15.65396000324331
STARLINK-1411,45706,53.0416,0.0003807,15.68208595,361.459882619115,366.5933660026649,1 45706U 20035BB  26094.25002315  .00237041  00000+0  20268-2 0  9997,2 45706  53.0416 216.0027 0003807 301.9953 113.7676 15.68208595  5891
STARLINK-1423,45710,53.0467,0.0006479,15.57864232,389.4518560443066,398.2269830887808,1 45710U 20035BF  26094.25002315  .00227339  00000+0  29151-2 0  9991,2 45710  53.0467 258.3901 0006479 229.9628 230.3514 15.57864232  5721
STARLINK-1433,45711,53.0468,0.0005855,15.60106138,383.3890216999853,391.31140722812233,1 45711U 20035BG  26094.15885563  .00151393  00000+0  18026-2 0  9990,2 45711  53.0468 257.4929 0005855 222.1700 137.8863 15.60106138323332
STARLINK-1434,45712,53.0506,0.0003304,15.29117128,476.1848215255577,480.71565437239406,1 45712U 20035BH  26093.75266560  .00083749  00000+0  29027-2 0  9998,2 45712  53.0506 263.7440 0003304 192.1148 167.9772 15.29117128323220
STARLINK-1465,45731,53.0488,0.000619,15.54062701,400.6799245379689,409.0772978646364,1 45731U 20038B   26094.21025249  .00143666  00000+0  21450-2 0  9998,2 45731  53.0488 100.3359 0006190  25.7673 334.3644 15.54062701320347
STARLINK-1471,45735,53.0482,0.0001726,15.50459728,414.2102746096125,416.55539765704543,1 45735U 20038F   26094.50899024  .00038199  00000+0  66400-3 0  9993,2 45735  53.0482  18.1917 0001726  43.6676 316.4468 15.50459728321535
STARLINK-1480,45741,53.0507,0.0002409,15.56106105,397.3066257140881,400.5718210385112,1 45741U 20038M   26094.23651294  .00121841  00000+0  16944-2 0  9999,2 45741  53.0507  94.3597 0002409  86.4767 273.6519 15.56106105320449
STARLINK-1500,45744,53.0366,0.0003297,15.36278115,454.87318780311216,459.3803607358659,1 45744U 20038Q   26094.25745887  .00044883  00000+0  12540-2 0  9994,2 45744  53.0366  72.6861 0003297  23.9010 336.2144 15.36278115320743
STARLINK-1504,45746,53.0239,0.0001039,15.55060749,401.27159152794593,402.68049901875384,1 45746U 20038S   26094.08970241  .00059151  00000+0  86528-3 0  9993,2 45746  53.0239  19.4831 0001039  86.2825 273.8304 15.55060749321465
STARLINK-1506,45747,53.073,0.0003189,15.26893884,482.91565579320377,487.2930311220598,1 45747U 20038T   26094.26003426  .00045971  00000+0  17196-2 0  9995,2 45747  53.0730  84.0318 0003189 359.0742   1.0250 15.26893884320593
STARLINK-1464,45751,53.0495,0.0003976,15.46990034,422.8318794896659,428.2421610705933,1 45751U 20038X   26094.24326643  .00123267  00000+0  23732-2 0  9995,2 45751  53.0495  82.8694 0003976  33.9983 326.1278 15.46990034320608
STARLINK-1477,45754,53.0486,0.000321,15.15642405,516.8149720381871,521.2429525859925,1 45754U 20038AA  26094.29433644  .00038864  00000+0  20248-2 0  9990,2 45754  53.0486  96.4560 0003210  52.5330 307.5954 15.15642405320413
STARLINK-1478,45755,53.0491,0.0004043,15.59585242,386.1206677864293,391.5924587817017,1 45755U 20038AB  26094.23865391  .00073742  00000+0  90784-3 0  9990,2 45755  53.0491  73.9285 0004043  26.9258 333.1963 15.59585242320714
STARLINK-1493,45759,53.0502,0.0005098,15.54639184,399.74455334271624,406.65880626064154,1 45759U 20038AF  26094.26681849  .00116568  00000+0  17117-2 0  9993,2 45759  53.0502  81.3373 0005098  85.6324 274.5268 15.54639184320614
STARLINK-1494,45760,53.0476,0.0005778,15.80030007,326.47953086419875,334.2318650259449,1 45760U 20038AG  26094.25002315  .00166189  00000+0  86124-3 0  9998,2 45760  53.0476  24.0144 0005778 103.5193 340.0563 15.80030007  5878
STARLINK-1502,45764,53.0498,0.0006212,15.51207806,408.9797428297579,417.41729808037235,1 45764U 20038AL  26094.23516659  .00125604  00000+0  20841-2 0  9991,2 45764  53.0498  83.6316 0006212  76.1447 284.0252 15.51207806320591
STARLINK-1470,45772,53.0462,0.000343,15.30256363,472.69614278807694,477.3974268644679,1 45772U 20038AU  26094.16570046  .00063358  00000+0  21290-2 0  9998,2 45772  53.0462  55.8752 0003430  87.4676 272.6716 15.30256363320973
STARLINK-1482,45773,53.1587,0.0003096,15.32268135,466.9270495172823,471.16682581148416,1 45773U 20038AV  26094.20535271  .00036872  00000+0  11730-2 0  9994,2 45773  53.1587  72.3498 0003096  95.2765 264.8590 15.32268135320759
STARLINK-1496,45780,53.0498,6.83e-05,15.52702667,408.37537494989465,409.30247586130463,1 45780U 20038BC  26094.25002315  .00171153  00000+0  26750-2 0  9995,2 45780  53.0498  55.1154 0000683  14.6627  70.0994 15.52702667  5857
STARLINK-1513,45786,53.1598,0.0001468,15.30218639,474.15335337587203,476.16548120398875,1 45786U 20038BJ  26094.22856584  .00006916  00000+0  24528-3 0  9999,2 45786  53.1598  72.5278 0001468 110.1591 249.9568 15.30218639320759
STARLINK-1522,46027,53.0656,0.0002613,15.10356292,533.3061366693773,536.9190008940232,1 46027U 20055A   26094.17030075  .00038821  00000+0  23442-2 0  9993,2 46027  53.0656  11.5442 0002613 121.5527 238.5719 15.10356292312733
STARLINK-1523,46028,53.1602,0.0001371,15.30199804,474.2760599911062,476.15524928900777,1 46028U 20055B   26094.12565532 -.00000238  00000+0  40804-5 0  9996,2 46028  53.1602   8.5587 0001371 102.7811 257.3343 15.30199804312793
STARLINK-1526,46029,53.1553,0.0001315,15.2936271,476.81466224520045,478.6177516386251,1 46029U 20055C   26094.05279122  .00007668  00000+0  27772-3 0  9996,2 46029  53.1553   8.8927 0001315  95.1566 264.9585 15.29362710312776
STARLINK-1555,46032,53.1584,0.000111,15.30210021,474.42442992440556,475.9458674414127,1 46032U 20055F   26093.05849878  .00009317  00000+0  32621-3 0  9992,2 46032  53.1584  13.5042 0001110  72.1033 288.0089 15.30210021312621
STARLINK-1556,46033,53.1567,0.0001789,15.29365522,476.4812925318365,478.93431380240963,1 46033U 20055G   26094.14657606  .00006965  00000+0  25339-3 0  9994,2 46033  53.1567   8.4092 0001789  79.4099 280.7102 15.29365522312760
STARLINK-1557,46034,53.1553,0.0001548,15.2939091,476.5706582460871,478.6932043072111,1 46034U 20055H   26094.14031833  .00008479  00000+0  30550-3 0  9996,2 46034  53.1553   8.3434 0001548  74.7989 285.3183 15.29390910312763
STARLINK-1558,46035,53.1605,0.0001179,15.30203724,474.39594135109655,476.0119591471648,1 46035U 20055J   26094.48909837  .00001749  00000+0  71144-4 0  9990,2 46035  53.1605   6.8725 0001179  84.4552 275.6584 15.30203724312846
STARLINK-1560,46036,53.1561,0.000158,15.29358319,476.64610279295084,478.81255655312816,1 46036U 20055K   26094.13710856  .00000619  00000+0  33780-4 0  9993,2 46036  53.1561   8.3983 0001580  90.6605 269.4576 15.29358319312790
STARLINK-1567,46038,53.0895,9.14e-05,15.66588299,368.05803587849095,369.29135305624004,1 46038U 20055M   26094.05404090  .00439025  00000+0  39064-2 0  9992,2 46038  53.0895   6.1471 0000914 110.4620 249.6493 15.66588299312800
STARLINK-1569,46039,53.1603,0.0001308,15.3021896,474.2620478153967,476.0548699074352,1 46039U 20055N   26094.16568801  .00012567  00000+0  43546-3 0  9995,2 46039  53.1603   8.3691 0001308  88.1022 272.0128 15.30218960312780
STARLINK-1582,46043,53.1604,0.0001124,15.30200971,474.441853743152,475.9824866366098,1 46043U 20055S   26094.04137828  .00003663  00000+0  13575-3 0  9994,2 46043  53.1604   8.9359 0001124  67.2347 292.8772 15.30200971312763
STARLINK-1591,46045,53.1604,0.0001416,15.30197383,474.2524475612645,476.19331908022104,1 46045U 20055U   26094.19834084  .00000238  00000+0  20172-4 0  9997,2 46045  53.1604   8.2228 0001416 138.2441 221.8668 15.30197383312770
STARLINK-1524,46047,53.1615,0.0001141,15.30207949,474.40937047783336,475.97330000393595,1 46047U 20055W   26093.93124739  .00004373  00000+0  15964-3 0  9995,2 46047  53.1615 356.5942 0001141 121.3904 238.7209 15.30207949312934
